ONEWEB-0228             
1 48780U 21045P   24147.70645082  .00000186  00000+0  45934-3 0  9991
2 48780  87.9049  48.7238 0001925  83.4925 276.6425 13.15549156146650
